STARLINK-31029          
1 58712U 24002H   26068.72801249  .00000880  00000+0  41851-4 0  9994
2 58712  53.1599 229.5833 0001017  81.6731 278.4385 15.30194615122023
HAWK-11C                
1 62381U 24247E   26068.51221537  .00009223  00000+0  33290-3 0  9992
2 62381  45.0045 114.8762 0005900 329.7040  30.3502 15.28848020 67743
